{
    "links": {
        "self": "http://www.neowsapp.com/rest/v1/neo/3797911?api_key=iIulBulltgU6a56xZRHN4H3l9WmuAYTsLGpBGhQ2"
    },
    "id": "3797911",
    "neo_reference_id": "3797911",
    "name": "(2018 BQ5)",
    "designation": "2018 BQ5",
    "nasa_jpl_url": "http://ssd.jpl.nasa.gov/sbdb.cgi?sstr=3797911",
    "absolute_magnitude_h": 27.3,
    "estimated_diameter": {
        "kilometers": {
            "estimated_diameter_min": 0.0092162655,
            "estimated_diameter_max": 0.0206081961
        },
        "meters": {
            "estimated_diameter_min": 9.216265485,
            "estimated_diameter_max": 20.6081961232
        },
        "miles": {
            "estimated_diameter_min": 0.0057267201,
            "estimated_diameter_max": 0.0128053354
        },
        "feet": {
            "estimated_diameter_min": 30.2370924539,
            "estimated_diameter_max": 67.6121941689
        }
    },
    "is_potentially_hazardous_asteroid": false,
    "close_approach_data": [
        {
            "close_approach_date": "2018-01-20",
            "close_approach_date_full": "2018-Jan-20 01:43",
            "epoch_date_close_approach": 1516412580000,
            "relative_velocity": {
                "kilometers_per_second": "9.2506787155",
                "kilometers_per_hour": "33302.4433757342",
                "miles_per_hour": "20692.8432186611"
            },
            "miss_distance": {
                "astronomical": "0.0131382312",
                "lunar": "5.1107719368",
                "kilometers": "1965451.403087544",
                "miles": "1221274.8706103472"
            },
            "orbiting_body": "Earth"
        }
    ],
    "orbital_data": {
        "orbit_id": "3",
        "orbit_determination_date": "2020-09-22 06:44:26",
        "first_observation_date": "2018-01-24",
        "last_observation_date": "2018-01-27",
        "data_arc_in_days": 3,
        "observations_used": 30,
        "orbit_uncertainty": "8",
        "minimum_orbit_intersection": ".000659028",
        "jupiter_tisserand_invariant": "3.789",
        "epoch_osculation": "2458143.5",
        "eccentricity": ".5079460345533553",
        "semi_major_axis": "1.891979347072212",
        "inclination": "1.192244665088194",
        "ascending_node_longitude": "294.9187555913689",
        "orbital_period": "950.545726880981",
        "perihelion_distance": ".9309559402700358",
        "perihelion_argument": "149.133269581761",
        "aphelion_distance": "2.853002753874389",
        "perihelion_time": "2458111.450209772507",
        "mean_anomaly": "12.13821087782572",
        "mean_motion": ".3787298073300119",
        "equinox": "J2000",
        "orbit_class": {
            "orbit_class_type": "APO",
            "orbit_class_description": "Near-Earth asteroid orbits which cross the Earth’s orbit similar to that of 1862 Apollo",
            "orbit_class_range": "a (semi-major axis) > 1.0 AU; q (perihelion) < 1.017 AU"
        }
    },
    "is_sentry_object": false
}